[{"OBJECT_NAME":"OBJECT AL","OBJECT_ID":"2023-085AL","EPOCH":"2026-03-09T22:26:04.970400","MEAN_MOTION":15.31857284,"ECCENTRICITY":0.000802,"INCLINATION":97.4839,"RA_OF_ASC_NODE":180.0127,"ARG_OF_PERICENTER":78.7242,"MEAN_ANOMALY":281.49,"EPHEMERIS_TYPE":0,"CLASSIFICATION_TYPE":"U","NORAD_CAT_ID":57038,"ELEMENT_SET_NO":999,"REV_AT_EPOCH":15154,"BSTAR":0.0006591637,"MEAN_MOTION_DOT":0.00020246,"MEAN_MOTION_DDOT":0},{"OBJECT_NAME":"STARLINK-31336","OBJECT_ID":"2024-027P","EPOCH":"2026-03-09T22:40:37.119648","MEAN_MOTION":15.30189602,"ECCENTRICITY":0.00011028,"INCLINATION":53.1596,"RA_OF_ASC_NODE":308.6965,"ARG_OF_PERICENTER":124.7203,"MEAN_ANOMALY":235.3902,"EPHEMERIS_TYPE":0,"CLASSIFICATION_TYPE":"U","NORAD_CAT_ID":58944,"ELEMENT_SET_NO":999,"REV_AT_EPOCH":11735,"BSTAR":8.6423365e-5,"MEAN_MOTION_DOT":2.201e-5,"MEAN_MOTION_DDOT":0}]
